[
  {
    "OBJECT_NAME": "EWS-G2 (GOES 15)",
    "OBJECT_ID": "2010-008A",
    "EPOCH": "2025-06-07T13:57:52.350624",
    "MEAN_MOTION": 1.00269582,
    "ECCENTRICITY": 0.0001787,
    "INCLINATION": 0.3077,
    "RA_OF_ASC_NODE": 85.6461,
    "ARG_OF_PERICENTER": 108.6627,
    "MEAN_ANOMALY": 332.769,
    "EPHEMERIS_TYPE": 0,
    "CLASSIFICATION_TYPE": "U",
    "NORAD_CAT_ID": 36411,
    "ELEMENT_SET_NO": 999,
    "REV_AT_EPOCH": 5588,
    "BSTAR": 0,
    "MEAN_MOTION_DOT": 5.5e-07,
    "MEAN_MOTION_DDOT": 0
  },
  {
    "OBJECT_NAME": "GOES 16",
    "OBJECT_ID": "2016-071A",
    "EPOCH": "2025-06-04T11:46:59.189376",
    "MEAN_MOTION": 1.00125158,
    "ECCENTRICITY": 0.0001567,
    "INCLINATION": 0.0473,
    "RA_OF_ASC_NODE": 255.3205,
    "ARG_OF_PERICENTER": 231.8484,
    "MEAN_ANOMALY": 199.0469,
    "EPHEMERIS_TYPE": 0,
    "CLASSIFICATION_TYPE": "U",
    "NORAD_CAT_ID": 41866,
    "ELEMENT_SET_NO": 999,
    "REV_AT_EPOCH": 3131,
    "BSTAR": 0,
    "MEAN_MOTION_DOT": -6.9e-07,
    "MEAN_MOTION_DDOT": 0
  },
  {
    "OBJECT_NAME": "GOES 17",
    "OBJECT_ID": "2018-022A",
    "EPOCH": "2025-06-07T20:50:38.734368",
    "MEAN_MOTION": 1.00271928,
    "ECCENTRICITY": 0.0003175,
    "INCLINATION": 0.0116,
    "RA_OF_ASC_NODE": 262.0864,
    "ARG_OF_PERICENTER": 204.363,
    "MEAN_ANOMALY": 358.3103,
    "EPHEMERIS_TYPE": 0,
    "CLASSIFICATION_TYPE": "U",
    "NORAD_CAT_ID": 43226,
    "ELEMENT_SET_NO": 999,
    "REV_AT_EPOCH": 2668,
    "BSTAR": 0,
    "MEAN_MOTION_DOT": -7.5e-07,
    "MEAN_MOTION_DDOT": 0
  },
  {
    "OBJECT_NAME": "GOES 18",
    "OBJECT_ID": "2022-021A",
    "EPOCH": "2025-06-07T18:26:15.478080",
    "MEAN_MOTION": 1.00272518,
    "ECCENTRICITY": 4.08e-05,
    "INCLINATION": 0.0128,
    "RA_OF_ASC_NODE": 66.8686,
    "ARG_OF_PERICENTER": 55.5734,
    "MEAN_ANOMALY": 273.5282,
    "EPHEMERIS_TYPE": 0,
    "CLASSIFICATION_TYPE": "U",
    "NORAD_CAT_ID": 51850,
    "ELEMENT_SET_NO": 999,
    "REV_AT_EPOCH": 1205,
    "BSTAR": 0,
    "MEAN_MOTION_DOT": 1.14e-06,
    "MEAN_MOTION_DDOT": 0
  },
  {
    "OBJECT_NAME": "GOES 19",
    "OBJECT_ID": "2024-119A",
    "EPOCH": "2025-06-07T13:35:29.824224",
    "MEAN_MOTION": 1.00269332,
    "ECCENTRICITY": 3.18e-05,
    "INCLINATION": 0.02,
    "RA_OF_ASC_NODE": 79.0824,
    "ARG_OF_PERICENTER": 47.6398,
    "MEAN_ANOMALY": 258.1529,
    "EPHEMERIS_TYPE": 0,
    "CLASSIFICATION_TYPE": "U",
    "NORAD_CAT_ID": 60133,
    "ELEMENT_SET_NO": 999,
    "REV_AT_EPOCH": 320,
    "BSTAR": 0,
    "MEAN_MOTION_DOT": -2.3e-06,
    "MEAN_MOTION_DDOT": 0
  }
]